{
  "norad_id": 63245,
  "name": "BUCCANEER MM",
  "history": [
    {
      "epoch": "2026-03-28T22:53:33.991296Z",
      "apogee_km": 588.4722800689551,
      "perigee_km": 581.1731486595809,
      "latitude_deg": -8.675125893700885e-05,
      "longitude_deg": 170.83077243628085,
      "height_km": 589.2821295493519,
      "semi_major_axis_km": 6962.959714364268,
      "eccentricity": 0.00052414,
      "inclination_deg": 97.6965,
      "raan_deg": 340.5893,
      "arg_perigee_deg": 112.9149,
      "mean_anomaly_deg": 247.2624,
      "mean_motion_rev_day": 14.94211031
    },
    {
      "epoch": "2026-03-29T05:19:17.568768Z",
      "apogee_km": 588.4724188600139,
      "perigee_km": 581.1487905693757,
      "latitude_deg": -4.081726741352654e-06,
      "longitude_deg": 74.39766835486068,
      "height_km": 589.2408952357159,
      "semi_major_axis_km": 6962.9476047146945,
      "eccentricity": 0.0005259,
      "inclination_deg": 97.6964,
      "raan_deg": 340.8518,
      "arg_perigee_deg": 112.3419,
      "mean_anomaly_deg": 247.8359,
      "mean_motion_rev_day": 14.94214929
    },
    {
      "epoch": "2026-03-30T03:49:19.866144Z",
      "apogee_km": 588.4975025597041,
      "perigee_km": 581.073634517129,
      "latitude_deg": 3.266367284031875e-05,
      "longitude_deg": 96.88292322177877,
      "height_km": 589.1095511305884,
      "semi_major_axis_km": 6962.922568538416,
      "eccentricity": 0.0005331,
      "inclination_deg": 97.6963,
      "raan_deg": 341.7707,
      "arg_perigee_deg": 110.27,
      "mean_anomaly_deg": 249.9094,
      "mean_motion_rev_day": 14.94222988
    },
    {
      "epoch": "2026-03-30T05:25:45.731136Z",
      "apogee_km": 588.5040838013447,
      "perigee_km": 581.0658727688224,
      "latitude_deg": -4.8728868972007345e-05,
      "longitude_deg": 72.77475870749173,
      "height_km": 589.0996532333896,
      "semi_major_axis_km": 6962.921978285083,
      "eccentricity": 0.00053413,
      "inclination_deg": 97.6963,
      "raan_deg": 341.8363,
      "arg_perigee_deg": 110.0768,
      "mean_anomaly_deg": 250.1027,
      "mean_motion_rev_day": 14.94223178
    },
    {
      "epoch": "2026-03-30T15:04:20.830368Z",
      "apogee_km": 588.5141273244271,
      "perigee_km": 581.0310883688744,
      "latitude_deg": 6.376321509506729e-05,
      "longitude_deg": -71.87373009881836,
      "height_km": 589.0364982153953,
      "semi_major_axis_km": 6962.90960784665,
      "eccentricity": 0.00053735,
      "inclination_deg": 97.6962,
      "raan_deg": 342.2301,
      "arg_perigee_deg": 109.1287,
      "mean_anomaly_deg": 251.0516,
      "mean_motion_rev_day": 14.9422716
    },
    {
      "epoch": "2026-03-30T23:06:30.012768Z",
      "apogee_km": 588.522114769783,
      "perigee_km": 581.0027404199354,
      "latitude_deg": 2.5480836404190638e-05,
      "longitude_deg": 167.58619340429124,
      "height_km": 588.9862179989118,
      "semi_major_axis_km": 6962.899427594859,
      "eccentricity": 0.00053996,
      "inclination_deg": 97.6962,
      "raan_deg": 342.5583,
      "arg_perigee_deg": 108.3891,
      "mean_anomaly_deg": 251.7917,
      "mean_motion_rev_day": 14.94230437
    },
    {
      "epoch": "2026-03-31T20:00:05.663232Z",
      "apogee_km": 588.5693289392184,
      "perigee_km": 580.9059890895078,
      "latitude_deg": -2.629728001604917e-06,
      "longitude_deg": -145.81719992741415,
      "height_km": 588.8460176119348,
      "semi_major_axis_km": 6962.874659014363,
      "eccentricity": 0.0005503,
      "inclination_deg": 97.696,
      "raan_deg": 343.4115,
      "arg_perigee_deg": 106.2309,
      "mean_anomaly_deg": 253.9517,
      "mean_motion_rev_day": 14.9423841
    },
    {
      "epoch": "2026-04-01T20:06:32.522688Z",
      "apogee_km": 588.6254461779636,
      "perigee_km": 580.815905009018,
      "latitude_deg": 2.1385237166290468e-05,
      "longitude_deg": -147.43487452937597,
      "height_km": 588.6845283676755,
      "semi_major_axis_km": 6962.857675593491,
      "eccentricity": 0.0005608,
      "inclination_deg": 97.6959,
      "raan_deg": 344.3958,
      "arg_perigee_deg": 103.7313,
      "mean_anomaly_deg": 256.4532,
      "mean_motion_rev_day": 14.94243877
    },
    {
      "epoch": "2026-04-02T20:12:58.771296Z",
      "apogee_km": 588.6473654265728,
      "perigee_km": 580.7181063113649,
      "latitude_deg": 1.1900627180541566e-05,
      "longitude_deg": -149.04989293955265,
      "height_km": 588.4787940647241,
      "semi_major_axis_km": 6962.819735868969,
      "eccentricity": 0.0005694,
      "inclination_deg": 97.6958,
      "raan_deg": 345.3802,
      "arg_perigee_deg": 101.043,
      "mean_anomaly_deg": 259.1431,
      "mean_motion_rev_day": 14.9425609
    },
    {
      "epoch": "2026-04-02T23:25:50.224800Z",
      "apogee_km": 588.6766766681503,
      "perigee_km": 580.6772389682919,
      "latitude_deg": 2.040539734659596e-05,
      "longitude_deg": 162.73491010291627,
      "height_km": 588.4719693486345,
      "semi_major_axis_km": 6962.813957818221,
      "eccentricity": 0.00057444,
      "inclination_deg": 97.6957,
      "raan_deg": 345.5114,
      "arg_perigee_deg": 100.9313,
      "mean_anomaly_deg": 259.2554,
      "mean_motion_rev_day": 14.9425795
    },
    {
      "epoch": "2026-04-03T20:19:24.206016Z",
      "apogee_km": 588.6747777582605,
      "perigee_km": 580.5854349341071,
      "latitude_deg": 2.003943928998408e-05,
      "longitude_deg": -150.6614139749676,
      "height_km": 588.2637975354169,
      "semi_major_axis_km": 6962.767106346183,
      "eccentricity": 0.0005809,
      "inclination_deg": 97.6955,
      "raan_deg": 346.3647,
      "arg_perigee_deg": 98.4937,
      "mean_anomaly_deg": 261.6942,
      "mean_motion_rev_day": 14.94273032
    }
  ]
}